NORAD_CAT_ID,OBJECT_NAME,OBJECT_TYPE,EPOCH,MEAN_MOTION,ECCENTRICITY,INCLINATION,RA_OF_ASC_NODE,ARG_OF_PERICENTER,MEAN_ANOMALY,BSTAR,MEAN_MOTION_DOT,MEAN_MOTION_DDOT,TLE_LINE0,TLE_LINE1,TLE_LINE2,SEMIMAJOR_AXIS,PERIOD,APOGEE,PERIGEE,DECAYED
49133.0,STARLINK-3077,PAYLOAD,2022-03-01 22:00:01,14.98322719,0.0002932,70.0016,37.7478,276.6459,341.5445,0.0018858,0.00022476,0.0,0 STARLINK-3077,1 49133U 21082D   22060.91668981  .00022476  00000-0  18858-2 0  9994,2 49133  70.0016  37.7478 0002932 276.6459 341.5445 14.98322719  3585,6950.215,96.107,574.118,570.043,0.0
49133.0,STARLINK-3077,PAYLOAD,2022-03-02 00:00:00,14.98346356,0.0002974,70.0017,37.5377,277.4913,70.0,-0.0018065,-0.00021591,0.0,0 STARLINK-3077,1 49133U 21082D   22061.00001157 -.00021591  00000-0 -18065-2 0  9990,2 49133  70.0017  37.5377 0002974 277.4913  70.0000 14.98346356 25973,6950.142,96.106,574.0740000000002,569.94,0.0
49133.0,STARLINK-3077,PAYLOAD,2022-03-02 14:00:01,14.98351074,0.0002997,70.0016,36.0667,281.9118,331.1814,-0.0038414,-0.00045656,0.0,0 STARLINK-3077,1 49133U 21082D   22061.58334491 -.00045656  00000-0 -38414-2 0  9991,2 49133  70.0016  36.0667 0002997 281.9118 331.1814 14.98351074  3557,6950.128000000002,96.106,574.076,569.91,0.0
49133.0,STARLINK-3077,PAYLOAD,2022-03-02 22:00:00,14.98336739,0.0002968,70.0021,35.2264,276.9212,333.6561,0.0012892,0.00015326,0.0,0 STARLINK-3077,1 49133U 21082D   22061.91667824  .00015326  00000-0  12892-2 0  9998,2 49133  70.0021  35.2264 0002968 276.9212 333.6561 14.98336739 26118,6950.172,96.107,574.1,569.974,0.0
49133.0,STARLINK-3077,PAYLOAD,2022-03-03 14:00:01,14.98336035,0.0003082,70.0021,33.5455,281.9120000000001,323.6505,-0.0042685,-0.00050666,0.0,0 STARLINK-3077,1 49133U 21082D   22062.58334491 -.00050666  00000-0 -42685-2 0  9994,2 49133  70.0021  33.5455 0003082 281.9120 323.6505 14.98336035 26210,6950.174,96.107,574.181,569.8969999999998,0.0
49133.0,STARLINK-3077,PAYLOAD,2022-03-03 22:00:00,14.98322109,0.0003047,70.0026,32.7053,277.4296,325.5955,0.0006129999999999,7.227e-05,0.0,0 STARLINK-3077,1 49133U 21082D   22062.91667824  .00007227  00000-0  61300-3 0  9999,2 49133  70.0026  32.7053 0003047 277.4296 325.5955 14.98322109 26267,6950.217,96.108,574.2,569.965,0.0
49133.0,STARLINK-3077,PAYLOAD,2022-03-04 14:00:01,14.98338285,0.0003016,70.0024,31.0245,282.6188,315.415,-0.0033959,-0.00040388,0.0,0 STARLINK-3077,1 49133U 21082D   22063.58335648 -.00040388  00000-0 -33959-2 0  9994,2 49133  70.0024  31.0245 0003016 282.6188 315.4150 14.98338285  3581,6950.167,96.106,574.128,569.936,0.0
49133.0,STARLINK-3077,PAYLOAD,2022-03-04 22:00:00,14.98335023,0.0002971,70.0029,30.1843,278.2025,317.2413,0.00031401,3.656e-05,0.0,0 STARLINK-3077,1 49133U 21082D   22063.91667824  .00003656  00000-0  31401-3 0  9991,2 49133  70.0029  30.1843 0002971 278.2025 317.2413 14.98335023  3578,6950.177,96.107,574.107,569.977,0.0
49133.0,STARLINK-3077,PAYLOAD,2022-03-05 06:00:00,14.98315769,0.0003036,70.0029,29.3438,285.4327,307.5108,0.0028316,0.00033844,0.0,0 STARLINK-3077,1 49133U 21082D   22064.25001157  .00033844  00000-0  28316-2 0  9992,2 49133  70.0029  29.3438 0003036 285.4327 307.5108 14.98315769 26467,6950.236999999999,96.108,574.212,569.992,0.0
49133.0,STARLINK-3077,PAYLOAD,2022-03-05 14:00:01,14.98350485,0.0002969,70.0026,28.5035,282.7685,307.657,-0.0028356,-0.00033782,0.0,0 STARLINK-3077,1 49133U 21082D   22064.58334491 -.00033782  00000-0 -28356-2 0  9995,2 49133  70.0026  28.5035 0002969 282.7685 307.6570 14.98350485  3552,6950.13,96.106,574.058,569.931,0.0
49133.0,STARLINK-3077,PAYLOAD,2022-03-05 22:00:01,14.98363615,0.0002963,70.003,27.6631,277.969,310.0065,-0.0027052,-0.00032251,0.0,0 STARLINK-3077,1 49133U 21082D   22064.91668981 -.00032251  00000-0 -27052-2 0  9998,2 49133  70.0030  27.6631 0002963 277.9690 310.0065 14.98363615  3595,6950.089,96.105,574.013,569.895,0.0
49133.0,STARLINK-3077,PAYLOAD,2022-03-06 06:00:00,14.98312895,0.0003118,70.0031,26.8227,284.627,300.8072,0.0023419,0.0002795,0.0,0 STARLINK-3077,1 49133U 21082D   22065.25001157  .00027950  00000-0  23419-2 0  9993,2 49133  70.0031  26.8227 0003118 284.6270 300.8072 14.98312895 26617,6950.246,96.108,574.278,569.944,0.0
49133.0,STARLINK-3077,PAYLOAD,2022-03-06 14:00:01,14.983425,0.0003075,70.0027,25.9823,281.4351,301.4802,-0.0021726,-0.00025929,0.0,0 STARLINK-3077,1 49133U 21082D   22065.58334491 -.00025929  00000-0 -21726-2 0  9994,2 49133  70.0027  25.9823 0003075 281.4351 301.4802 14.98342500  3575,6950.154,96.106,574.156,569.882,0.0
49133.0,STARLINK-3077,PAYLOAD,2022-03-06 22:00:00,14.98354749,0.0003067,70.0031,25.1419,277.0488,303.3494,-0.0004458,-5.412e-05,0.0,0 STARLINK-3077,1 49133U 21082D   22065.91667824 -.00005412  00000-0 -44580-3 0  9999,2 49133  70.0031  25.1419 0003067 277.0488 303.3494 14.98354749  3583,6950.116,96.105,574.113,569.85,0.0
49133.0,STARLINK-3077,PAYLOAD,2022-03-07 06:00:00,14.98325426,0.0003218,70.0031,24.3015,283.1522,294.7619,0.0004835,5.68e-05,0.0,0 STARLINK-3077,1 49133U 21082D   22066.25001157  .00005680  00000-0  48350-3 0  9992,2 49133  70.0031  24.3015 0003218 283.1522 294.7619 14.98325426 26768,6950.206999999999,96.107,574.309,569.835,0.0
49133.0,STARLINK-3077,PAYLOAD,2022-03-07 12:00:00,14.98346624,0.0003221,70.0028,23.6712,281.6768,204.3423,-0.0035729,-0.00042486,0.0,0 STARLINK-3077,1 49133U 21082D   22066.50001157 -.00042486  00000-0 -35729-2 0  9992,2 49133  70.0028  23.6712 0003221 281.6768 204.3423 14.98346624  3622,6950.141,96.106,574.245,569.768,0.0
49133.0,STARLINK-3077,PAYLOAD,2022-03-07 22:00:00,14.98343695,0.0003143999999999,70.0032,22.6207,276.6661,296.1887,-0.0040453,-0.00048049,0.0,0 STARLINK-3077,1 49133U 21082D   22066.91667824 -.00048049  00000-0 -40453-2 0  9997,2 49133  70.0032  22.6207 0003144 276.6661 296.1887 14.98343695  3566,6950.151,96.106,574.201,569.83,0.0
49133.0,STARLINK-3077,PAYLOAD,2022-03-08 06:00:02,14.98288049,0.0003168999999999,70.003,21.7803,283.2472,287.1546,0.0033247,0.0003976,0.0,0 STARLINK-3077,1 49133U 21082D   22067.25002315  .00039760  00000-0  33247-2 0  9994,2 49133  70.0030  21.7803 0003169 283.2472 287.1546 14.98288049 26914,6950.323,96.11,574.39,569.985,0.0
49133.0,STARLINK-3077,PAYLOAD,2022-03-08 14:00:01,14.98314152,0.0003132,70.0028,20.9399,280.08,287.7084,-0.0012169,-0.00014577,0.0,0 STARLINK-3077,1 49133U 21082D   22067.58334491 -.00014577  00000-0 -12169-2 0  9994,2 49133  70.0028  20.9399 0003132 280.0800 287.7084 14.98314152  3588,6950.2419999999975,96.108,574.284,569.93,0.0
49133.0,STARLINK-3077,PAYLOAD,2022-03-08 22:00:00,14.98334989,0.0003126,70.0032,20.0996,276.9801,288.2585,-0.0012626,-0.00015128,0.0,0 STARLINK-3077,1 49133U 21082D   22067.91667824 -.00015128  00000-0 -12626-2 0  9991,2 49133  70.0032  20.0996 0003126 276.9801 288.2585 14.98334989 27011,6950.177,96.107,574.215,569.87,0.0
49133.0,STARLINK-3077,PAYLOAD,2022-03-09 14:00:01,14.98326601,0.0003089,70.0028,18.4188,280.2223,279.9727,-0.00069131,-8.331e-05,0.0,0 STARLINK-3077,1 49133U 21082D   22068.58334491 -.00008331  00000-0 -69131-3 0  9998,2 49133  70.0028  18.4188 0003089 280.2223 279.9727 14.98326601  3598,6950.203,96.107,574.215,569.9209999999998,0.0
49133.0,STARLINK-3077,PAYLOAD,2022-03-09 22:00:01,14.98352598,0.0003092,70.0031,17.5785,277.7089,280.0159,-0.0018645,-0.00022282,0.0,0 STARLINK-3077,1 49133U 21082D   22068.91668981 -.00022282  00000-0 -18645-2 0  9993,2 49133  70.0031  17.5785 0003092 277.7089 280.0159 14.98352598 27165,6950.123000000001,96.106,574.137,569.839,0.0
49133.0,STARLINK-3077,PAYLOAD,2022-03-10 14:00:01,14.98337178,0.0003026,70.0026,15.8977,280.73900000000003,271.9176,-0.00011377,-1.4499999999999992e-05,0.0,0 STARLINK-3077,1 49133U 21082D   22069.58334491 -.00001450  00000-0 -11377-3 0  9993,2 49133  70.0026  15.8977 0003026 280.7390 271.9176 14.98337178  3573,6950.170999999999,96.107,574.139,569.933,0.0
49133.0,STARLINK-3077,PAYLOAD,2022-03-10 20:00:01,14.98353278,0.0003017,70.0028,15.2675,277.798,182.9722,-0.00076244,-9.184e-05,0.0,0 STARLINK-3077,1 49133U 21082D   22069.83334491 -.00009184  00000-0 -76244-3 0  9997,2 49133  70.0028  15.2675 0003017 277.7980 182.9722 14.98353278 27309,6950.121,96.106,574.0830000000002,569.889,0.0
49133.0,STARLINK-3077,PAYLOAD,2022-03-10 22:00:01,14.98379799,0.0003064,70.0029,15.0573,278.1642,272.0379,-0.0061105,-0.00072349,0.0,0 STARLINK-3077,1 49133U 21082D   22069.91668981 -.00072349  00000-0 -61105-2 0  9992,2 49133  70.0029  15.0573 0003064 278.1642 272.0379 14.98379799  3586,6950.0390000000025,96.104,574.033,569.774,0.0
49133.0,STARLINK-3077,PAYLOAD,2022-03-11 14:00:01,14.98325701,0.0003082,70.0025,13.3764,280.2639,264.8834,0.00073439,8.68e-05,0.0,0 STARLINK-3077,1 49133U 21082D   22070.58334491  .00008680  00000-0  73439-3 0  9992,2 49133  70.0025  13.3764 0003082 280.2639 264.8834 14.98325701  3551,6950.206,96.107,574.2130000000002,569.929,0.0
49133.0,STARLINK-3077,PAYLOAD,2022-03-11 22:00:00,14.98282043,0.0003179,70.0005,12.5433,283.5641,259.0461,0.006185,0.00074402,0.0,0 STARLINK-3077,1 49133U 21082D   22070.91667824  .00074402  00000-0  61850-2 0  9996,2 49133  70.0005  12.5433 0003179 283.5641 259.0461 14.98282043 27468,6950.340999999999,96.11,574.4159999999998,569.997,0.0
49133.0,STARLINK-3077,PAYLOAD,2022-03-12 06:00:00,14.98330568,0.0003168999999999,70.0028,11.6953,284.3289,255.82,0.0040183,0.00048185,0.0,0 STARLINK-3077,1 49133U 21082D   22071.25001157  .00048185  00000-0  40183-2 0  9990,2 49133  70.0028  11.6953 0003169 284.3289 255.8200 14.98330568 27513,6950.191,96.107,574.259,569.854,0.0
49133.0,STARLINK-3077,PAYLOAD,2022-03-12 14:00:01,14.9835711,0.0003148,70.0026,10.8548,279.0319,258.6366,-0.0021958,-0.00026214,0.0,0 STARLINK-3077,1 49133U 21082D   22071.58334491 -.00026214  00000-0 -21958-2 0  9996,2 49133  70.0026  10.8548 0003148 279.0319 258.6366 14.98357110  3581,6950.109,96.105,574.1619999999998,569.786,0.0
